{"type":"FeatureCollection","features":[{"type":"Feature","properties":{"name":"Burlingame","geoid":"0609066"},"geometry":{"type":"Polygon","coordinates":[[[-122.40362,37.58161],[-122.39916,37.58445],[-122.39719,37.58496],[-122.39551,37.58547],[-122.39095,37.589],[-122.38995,37.58824],[-122.38831,37.59119],[-122.39011,37.5925],[-122.38715,37.59564],[-122.38449,37.59761],[-122.38406,37.59792],[-122.37377,37.60402],[-122.36982,37.60273],[-122.36022,37.5925],[-122.35961,37.59248],[-122.33464,37.59179],[-122.33441,37.58804],[-122.33305,37.58823],[-122.33463,37.58711],[-122.33473,37.58664],[-122.33465,37.58648],[-122.33083,37.58298],[-122.33455,37.5804],[-122.3387,37.57748],[-122.34094,37.57597],[-122.34289,37.57451],[-122.34201,37.57421],[-122.34955,37.57096],[-122.35191,37.56995],[-122.35412,37.57211],[-122.35288,37.57285],[-122.35383,37.57446],[-122.35266,37.57708],[-122.35409,37.57748],[-122.35542,37.57817],[-122.35602,37.5785],[-122.35685,37.5773],[-122.35884,37.57724],[-122.36328,37.58023],[-122.36351,37.58058],[-122.36812,37.57811],[-122.36932,37.57804],[-122.37042,37.57939],[-122.37133,37.5799],[-122.37189,37.58079],[-122.37468,37.57981],[-122.37816,37.57739],[-122.38093,37.57749],[-122.3803,37.57662],[-122.38142,37.57451],[-122.3829,37.57491],[-122.38358,37.5732],[-122.38605,37.57195],[-122.38748,37.57294],[-122.38581,37.57448],[-122.38838,37.57375],[-122.38745,37.57544],[-122.38577,37.57704],[-122.38131,37.57767],[-122.38054,37.57804],[-122.38141,37.57955],[-122.38182,37.57877],[-122.38423,37.57919],[-122.38388,37.57935],[-122.38431,37.57985],[-122.38365,37.5803],[-122.3836,37.57971],[-122.38317,37.57984],[-122.38282,37.58034],[-122.38315,37.58052],[-122.38725,37.58252],[-122.38875,37.58081],[-122.38763,37.58014],[-122.38993,37.57783],[-122.39222,37.57685],[-122.39351,37.57362],[-122.39576,37.57259],[-122.39355,37.57004],[-122.39232,37.5688],[-122.39314,37.56827],[-122.39709,37.57418],[-122.39847,37.57617],[-122.39904,37.57703],[-122.39961,37.57777],[-122.40362,37.58161]]]}},{"type":"Feature","properties":{"name":"Pacifica","geoid":"0654806"},"geometry":{"type":"Polygon","coordinates":[[[-122.51472,37.59828],[-122.51429,37.59815],[-122.50765,37.59607],[-122.50746,37.59617],[-122.50202,37.59928],[-122.50139,37.59964],[-122.50126,37.60024],[-122.50043,37.60414],[-122.50102,37.60494],[-122.50197,37.6062],[-122.50213,37.60642],[-122.50233,37.60829],[-122.49843,37.60827],[-122.49821,37.60827],[-122.49701,37.61154],[-122.49679,37.61214],[-122.49819,37.61412],[-122.49819,37.61421],[-122.49806,37.61957],[-122.49803,37.62082],[-122.49589,37.62277],[-122.49529,37.62986],[-122.49527,37.63],[-122.49503,37.63284],[-122.49458,37.6382],[-122.49408,37.64404],[-122.49428,37.64718],[-122.49538,37.66435],[-122.49374,37.66441],[-122.49253,37.66325],[-122.4917,37.66225],[-122.49021,37.6611],[-122.48574,37.6615],[-122.48473,37.66249],[-122.48573,37.66431],[-122.48552,37.66429],[-122.48502,37.66429],[-122.48487,37.66637],[-122.4816,37.66613],[-122.47679,37.66198],[-122.47579,37.66051],[-122.47395,37.65757],[-122.47387,37.65745],[-122.47134,37.65304],[-122.47186,37.64914],[-122.46851,37.64366],[-122.46413,37.63879],[-122.46808,37.63761],[-122.46878,37.63852],[-122.4696,37.63787],[-122.47184,37.63407],[-122.47253,37.63377],[-122.47272,37.6338],[-122.47271,37.63211],[-122.4724,37.63149],[-122.47184,37.63115],[-122.46886,37.62723],[-122.46278,37.61933],[-122.46119,37.61913],[-122.4516,37.61813],[-122.45095,37.61754],[-122.45145,37.61713],[-122.45007,37.61559],[-122.45059,37.61569],[-122.44392,37.59362],[-122.45116,37.59018],[-122.46278,37.58484],[-122.46285,37.58451],[-122.45976,37.58447],[-122.45966,37.57814],[-122.46134,37.57734],[-122.46135,37.5737],[-122.45956,37.5737],[-122.45939,37.57074],[-122.45941,37.57008],[-122.45949,37.56636],[-122.46399,37.56634],[-122.46404,37.5701],[-122.46791,37.5701],[-122.47279,37.57009],[-122.47294,37.57357],[-122.47625,37.57402],[-122.47157,37.57792],[-122.47281,37.57956],[-122.47518,37.57842],[-122.48236,37.5752],[-122.48718,37.5791],[-122.48696,37.57617],[-122.48906,37.57528],[-122.49182,37.57739],[-122.49332,37.57569],[-122.50055,37.57968],[-122.49651,37.57955],[-122.4956,37.58057],[-122.49396,37.58218],[-122.49846,37.58353],[-122.49976,37.58207],[-122.49979,37.58108],[-122.5018,37.58273],[-122.49959,37.58426],[-122.49983,37.58762],[-122.49939,37.58828],[-122.50333,37.59081],[-122.50401,37.59087],[-122.50771,37.58749],[-122.51243,37.59011],[-122.51141,37.59295],[-122.51533,37.59556],[-122.51472,37.59828]]]}},{"type":"Feature","properties":{"name":"San Mateo","geoid":"0668252"},"geometry":{"type":"Polygon","coordinates":[[[-122.355,37.56416],[-122.35008,37.56631],[-122.35191,37.56995],[-122.34955,37.57096],[-122.34201,37.57421],[-122.34289,37.57451],[-122.34094,37.57597],[-122.3387,37.57748],[-122.33455,37.5804],[-122.33083,37.58298],[-122.33465,37.58648],[-122.33473,37.58664],[-122.33463,37.58711],[-122.33305,37.58823],[-122.32894,37.58879],[-122.32512,37.59153],[-122.31492,37.59124],[-122.31539,37.58727],[-122.31571,37.58367],[-122.3059,37.57548],[-122.30432,37.57548],[-122.29686,37.57546],[-122.28845,37.57543],[-122.28837,37.57055],[-122.28448,37.57062],[-122.28446,37.56487],[-122.2794,37.56442],[-122.27943,37.56214],[-122.27941,37.55967],[-122.27923,37.55613],[-122.28023,37.55594],[-122.28216,37.55497],[-122.28262,37.55444],[-122.28391,37.55413],[-122.28196,37.55334],[-122.28201,37.55146],[-122.28449,37.55047],[-122.28355,37.54827],[-122.28021,37.54847],[-122.27898,37.54565],[-122.27714,37.54416],[-122.27648,37.5404],[-122.27732,37.53829],[-122.27873,37.53684],[-122.27883,37.5364],[-122.27666,37.53422],[-122.27673,37.53386],[-122.27732,37.53294],[-122.27497,37.53047],[-122.27645,37.52951],[-122.27786,37.52987],[-122.27828,37.52884],[-122.28452,37.53042],[-122.28554,37.53067],[-122.28678,37.52957],[-122.28704,37.52943],[-122.28741,37.52927],[-122.29129,37.52764],[-122.29328,37.52698],[-122.29436,37.52649],[-122.30195,37.52336],[-122.30671,37.52132],[-122.3073,37.52116],[-122.31174,37.52444],[-122.31328,37.52156],[-122.31443,37.52111],[-122.31496,37.51921],[-122.31941,37.51918],[-122.32179,37.52122],[-122.32371,37.52102],[-122.32517,37.52004],[-122.32485,37.51732],[-122.32685,37.51506],[-122.32888,37.51355],[-122.32971,37.51317],[-122.3302,37.51259],[-122.33117,37.5131],[-122.33426,37.51575],[-122.33792,37.51421],[-122.33879,37.51513],[-122.3385,37.5152],[-122.33705,37.51547],[-122.33604,37.51622],[-122.33585,37.51708],[-122.33553,37.51725],[-122.33595,37.51781],[-122.3326,37.51723],[-122.32998,37.51751],[-122.33426,37.52088],[-122.3372,37.51939],[-122.33804,37.51899],[-122.34014,37.52122],[-122.33961,37.52124],[-122.33867,37.52055],[-122.33787,37.52132],[-122.33742,37.52198],[-122.3345,37.52471],[-122.3327,37.52508],[-122.33575,37.52955],[-122.34158,37.53173],[-122.33726,37.53534],[-122.34118,37.53846],[-122.3387,37.5406],[-122.33523,37.53802],[-122.33296,37.53892],[-122.3302,37.54127],[-122.33258,37.54417],[-122.33137,37.54575],[-122.33024,37.54706],[-122.32846,37.54858],[-122.32906,37.5483],[-122.33242,37.55053],[-122.33785,37.54608],[-122.33918,37.54708],[-122.34005,37.54789],[-122.34061,37.54989],[-122.33947,37.55273],[-122.33634,37.55554],[-122.33374,37.55788],[-122.3307,37.56062],[-122.32918,37.5621],[-122.33003,37.56323],[-122.33051,37.56394],[-122.33196,37.56497],[-122.33243,37.56527],[-122.33315,37.5657],[-122.33346,37.56582],[-122.33361,37.56593],[-122.334,37.56614],[-122.33634,37.56751],[-122.33716,37.56799],[-122.34564,37.56413],[-122.35259,37.56097],[-122.35271,37.56089],[-122.35309,37.56119],[-122.355,37.56416]],[[-122.32649,37.53944],[-122.3227,37.53735],[-122.32003,37.53947],[-122.31823,37.541],[-122.31998,37.54238],[-122.32038,37.54443],[-122.32118,37.54377],[-122.32465,37.54592],[-122.32938,37.54188],[-122.32649,37.53944]]]}},{"type":"Feature","properties":{"name":"Foster City","geoid":"0625338"},"geometry":{"type":"Polygon","coordinates":[[[-122.28845,37.57543],[-122.28426,37.57542],[-122.27356,37.57052],[-122.26287,37.57391],[-122.26243,37.57368],[-122.25193,37.56789],[-122.251,37.56623],[-122.24986,37.56421],[-122.2498,37.5641],[-122.24701,37.55914],[-122.24396,37.55373],[-122.24936,37.54919],[-122.25072,37.54819],[-122.25237,37.54451],[-122.25193,37.54041],[-122.25685,37.54049],[-122.25846,37.54118],[-122.25962,37.54038],[-122.26043,37.53968],[-122.26137,37.5334],[-122.26458,37.53411],[-122.265,37.53439],[-122.2657,37.53408],[-122.27666,37.53422],[-122.27883,37.5364],[-122.27873,37.53684],[-122.27732,37.53829],[-122.27648,37.5404],[-122.27714,37.54416],[-122.27898,37.54565],[-122.28021,37.54847],[-122.28355,37.54827],[-122.28449,37.55047],[-122.28201,37.55146],[-122.28196,37.55334],[-122.28391,37.55413],[-122.28262,37.55444],[-122.28216,37.55497],[-122.28023,37.55594],[-122.27923,37.55613],[-122.27941,37.55967],[-122.27943,37.56214],[-122.2794,37.56442],[-122.28446,37.56487],[-122.28448,37.57062],[-122.28837,37.57055],[-122.28845,37.57543]]]}},{"type":"Feature","properties":{"name":"Menlo Park","geoid":"0646870"},"geometry":{"type":"Polygon","coordinates":[[[-122.22927,37.42473],[-122.22455,37.42411],[-122.22096,37.42793],[-122.21897,37.42896],[-122.21755,37.42796],[-122.21364,37.43272],[-122.21338,37.43274],[-122.2117,37.433],[-122.20767,37.4325],[-122.20732,37.43231],[-122.20797,37.43132],[-122.20571,37.43013],[-122.20523,37.42984],[-122.20487,37.43],[-122.20346,37.43023],[-122.20301,37.42998],[-122.20265,37.43044],[-122.2006,37.42936],[-122.19951,37.43067],[-122.196,37.42893],[-122.19237,37.42583],[-122.19154,37.42638],[-122.19014,37.42846],[-122.19484,37.43089],[-122.19651,37.4305],[-122.1971,37.4323],[-122.19719,37.43261],[-122.19752,37.43221],[-122.19976,37.43339],[-122.1985,37.43482],[-122.1998,37.43553],[-122.20015,37.43695],[-122.20227,37.43831],[-122.20177,37.4389],[-122.20007,37.44092],[-122.19576,37.44608],[-122.19167,37.45099],[-122.18759,37.45582],[-122.19562,37.45985],[-122.19342,37.46179],[-122.19205,37.46092],[-122.18924,37.46456],[-122.18634,37.46312],[-122.18851,37.46031],[-122.18526,37.4587],[-122.18375,37.45795],[-122.18086,37.46159],[-122.17978,37.4602],[-122.1767,37.45866],[-122.17544,37.46028],[-122.17395,37.45952],[-122.17319,37.46109],[-122.17272,37.46104],[-122.17265,37.46089],[-122.17064,37.45987],[-122.16722,37.46368],[-122.16509,37.463],[-122.16438,37.46417],[-122.16168,37.46975],[-122.16157,37.47009],[-122.16787,37.4717],[-122.16945,37.4727],[-122.17025,37.47311],[-122.17449,37.47523],[-122.17504,37.47541],[-122.1779,37.47619],[-122.18678,37.47676],[-122.18601,37.47801],[-122.18354,37.48145],[-122.18191,37.48252],[-122.18288,37.484],[-122.18221,37.48513],[-122.18929,37.48666],[-122.18917,37.48738],[-122.18952,37.48742],[-122.1895,37.48753],[-122.1837,37.48835],[-122.18278,37.48825],[-122.1785,37.48699],[-122.17849,37.48715],[-122.17912,37.48727],[-122.17937,37.48748],[-122.17946,37.48801],[-122.1792,37.48861],[-122.17919,37.48936],[-122.17898,37.48937],[-122.17844,37.48896],[-122.17847,37.49777],[-122.17818,37.49827],[-122.17599,37.4982],[-122.17304,37.49622],[-122.16876,37.49633],[-122.16422,37.50164],[-122.16209,37.50022],[-122.15569,37.5012],[-122.14963,37.50267],[-122.13972,37.50703],[-122.13617,37.50683],[-122.13098,37.50365],[-122.12771,37.50005],[-122.12762,37.4997],[-122.12411,37.48586],[-122.12051,37.47724],[-122.1265,37.475],[-122.13233,37.47981],[-122.1309,37.48337],[-122.13126,37.48419],[-122.13867,37.48188],[-122.13976,37.48085],[-122.13952,37.47593],[-122.14621,37.4755],[-122.14718,37.47357],[-122.15369,37.4745],[-122.15642,37.4697],[-122.15632,37.46941],[-122.15536,37.46883],[-122.15095,37.46623],[-122.15056,37.46599],[-122.15088,37.46411],[-122.15126,37.46274],[-122.15,37.46175],[-122.14572,37.4611],[-122.14505,37.46079],[-122.14455,37.46079],[-122.1446,37.46047],[-122.14501,37.45848],[-122.14493,37.4582],[-122.14676,37.45658],[-122.14874,37.45709],[-122.15351,37.45668],[-122.15593,37.45542],[-122.15571,37.45418],[-122.15769,37.45349],[-122.15952,37.45472],[-122.16238,37.45388],[-122.16269,37.45384],[-122.1653,37.45284],[-122.16582,37.45093],[-122.16725,37.45097],[-122.1689,37.44741],[-122.1703,37.44718],[-122.17415,37.44478],[-122.17514,37.44301],[-122.1757,37.44188],[-122.1798,37.44084],[-122.17986,37.43946],[-122.18218,37.43948],[-122.18456,37.43409],[-122.18765,37.43331],[-122.19051,37.43096],[-122.18988,37.42883],[-122.18961,37.42714],[-122.19133,37.4253],[-122.19084,37.42437],[-122.19071,37.42415],[-122.19169,37.42386],[-122.19047,37.42097],[-122.19169,37.41977],[-122.19351,37.42073],[-122.19698,37.42153],[-122.19793,37.42074],[-122.19847,37.42198],[-122.20783,37.42085],[-122.20901,37.41732],[-122.21218,37.41689],[-122.21429,37.41792],[-122.21483,37.41827],[-122.21623,37.41865],[-122.21622,37.42034],[-122.21719,37.42038],[-122.22018,37.42027],[-122.22214,37.41964],[-122.22297,37.41949],[-122.22374,37.4191],[-122.22356,37.41979],[-122.22381,37.42027],[-122.22658,37.42252],[-122.22925,37.42467],[-122.22927,37.42473]],[[-122.19237,37.42583],[-122.19312,37.42532],[-122.19362,37.42475],[-122.19743,37.4223],[-122.19205,37.42376],[-122.19156,37.42445],[-122.19237,37.42583]]]}},{"type":"Feature","properties":{"name":"Palo Alto","geoid":"0655282"},"geometry":{"type":"Polygon","coordinates":[[[-122.20265,37.36305],[-122.20132,37.36701],[-122.2016,37.36801],[-122.20101,37.37121],[-122.20071,37.37196],[-122.19933,37.37267],[-122.19778,37.37358],[-122.19584,37.37297],[-122.19488,37.37472],[-122.19337,37.37931],[-122.19132,37.37964],[-122.1885,37.37848],[-122.18632,37.37988],[-122.18758,37.38063],[-122.18688,37.38155],[-122.18898,37.38354],[-122.18936,37.38475],[-122.18661,37.38392],[-122.18342,37.38459],[-122.18549,37.38774],[-122.18165,37.38875],[-122.17237,37.39049],[-122.17023,37.39016],[-122.16979,37.392],[-122.16784,37.4002],[-122.16449,37.39873],[-122.16173,37.39631],[-122.15203,37.39432],[-122.15247,37.39816],[-122.15225,37.40035],[-122.15303,37.40194],[-122.15197,37.40516],[-122.15472,37.40556],[-122.15597,37.40632],[-122.14971,37.41392],[-122.15334,37.41599],[-122.15727,37.41803],[-122.15636,37.41911],[-122.15429,37.42161],[-122.15168,37.42479],[-122.14924,37.42769],[-122.15183,37.42994],[-122.16021,37.4373],[-122.16397,37.44069],[-122.16571,37.44125],[-122.16542,37.44193],[-122.16763,37.44363],[-122.16887,37.4425],[-122.16712,37.44128],[-122.16813,37.43967],[-122.16916,37.44043],[-122.17054,37.4409],[-122.17456,37.43204],[-122.17812,37.4328],[-122.18076,37.43401],[-122.18229,37.4345],[-122.18988,37.42883],[-122.19051,37.43096],[-122.18765,37.43331],[-122.18456,37.43409],[-122.18218,37.43948],[-122.17986,37.43946],[-122.1798,37.44084],[-122.1757,37.44188],[-122.17514,37.44301],[-122.17415,37.44478],[-122.1703,37.44718],[-122.1689,37.44741],[-122.16725,37.45097],[-122.16582,37.45093],[-122.1653,37.45284],[-122.16269,37.45384],[-122.16238,37.45388],[-122.15952,37.45472],[-122.15769,37.45349],[-122.15571,37.45418],[-122.15593,37.45542],[-122.15351,37.45668],[-122.14874,37.45709],[-122.14676,37.45658],[-122.14493,37.4582],[-122.14303,37.45811],[-122.14191,37.45783],[-122.13877,37.4548],[-122.13671,37.45434],[-122.1339,37.45438],[-122.12988,37.45309],[-122.12829,37.45186],[-122.12786,37.45274],[-122.12598,37.45355],[-122.12238,37.45338],[-122.12177,37.45424],[-122.12282,37.45614],[-122.12392,37.46101],[-122.11769,37.46524],[-122.11516,37.46628],[-122.1091,37.463],[-122.1018,37.46273],[-122.09627,37.45784],[-122.08874,37.45227],[-122.08839,37.45223],[-122.08544,37.45195],[-122.08693,37.45086],[-122.08725,37.45081],[-122.09083,37.45033],[-122.09015,37.44931],[-122.09101,37.44696],[-122.09425,37.44565],[-122.09508,37.44416],[-122.09318,37.44265],[-122.09419,37.44129],[-122.09609,37.4412],[-122.09956,37.43713],[-122.09951,37.43599],[-122.09931,37.43524],[-122.09981,37.43499],[-122.10078,37.42906],[-122.10076,37.42769],[-122.10115,37.42791],[-122.09776,37.4248],[-122.09815,37.42165],[-122.10025,37.42177],[-122.10128,37.41939],[-122.10216,37.41559],[-122.10203,37.41552],[-122.10129,37.41205],[-122.10339,37.41334],[-122.10574,37.41094],[-122.10557,37.41059],[-122.10797,37.40842],[-122.1081,37.40829],[-122.11564,37.4127],[-122.11651,37.4113],[-122.11729,37.41065],[-122.11639,37.41006],[-122.11569,37.40963],[-122.11581,37.40951],[-122.11516,37.40912],[-122.11308,37.40781],[-122.11359,37.40747],[-122.11762,37.40428],[-122.11994,37.40642],[-122.12005,37.40626],[-122.12241,37.40426],[-122.12447,37.40127],[-122.12483,37.39921],[-122.12824,37.39661],[-122.12949,37.39615],[-122.12757,37.3945],[-122.12834,37.39221],[-122.1266,37.38898],[-122.12711,37.38876],[-122.12958,37.39254],[-122.13034,37.39369],[-122.13307,37.39373],[-122.13215,37.39094],[-122.13532,37.39213],[-122.13635,37.38959],[-122.13508,37.38953],[-122.13507,37.38855],[-122.13825,37.38918],[-122.13822,37.38967],[-122.13882,37.38966],[-122.14017,37.39106],[-122.14153,37.39539],[-122.14325,37.39452],[-122.14975,37.39215],[-122.1502,37.39184],[-122.15131,37.39346],[-122.16196,37.39541],[-122.16647,37.39882],[-122.16725,37.39924],[-122.1689,37.39193],[-122.17186,37.37975],[-122.16992,37.37925],[-122.16782,37.3775],[-122.17048,37.3695],[-122.17134,37.36699],[-122.17222,37.36442],[-122.16883,37.36355],[-122.17165,37.36253],[-122.17009,37.36075],[-122.17289,37.3611],[-122.17338,37.3608],[-122.17386,37.36054],[-122.17425,37.36053],[-122.17503,37.35989],[-122.17558,37.35889],[-122.17527,37.3584],[-122.17419,37.35834],[-122.17263,37.35792],[-122.17213,37.35961],[-122.1676,37.35883],[-122.16903,37.35687],[-122.16584,37.35535],[-122.16528,37.35353],[-122.17221,37.35274],[-122.17208,37.34576],[-122.17235,37.34506],[-122.17235,37.33807],[-122.16804,37.33825],[-122.16847,37.33085],[-122.16012,37.33085],[-122.16005,37.32346],[-122.15049,37.3236],[-122.15014,37.32779],[-122.14615,37.3279],[-122.14622,37.33105],[-122.1457,37.33105],[-122.13222,37.3311],[-122.13266,37.31353],[-122.13274,37.30953],[-122.13498,37.30164],[-122.13508,37.29727],[-122.13517,37.29366],[-122.15195,37.29438],[-122.15257,37.28822],[-122.15339,37.28971],[-122.15623,37.29181],[-122.16119,37.293],[-122.16216,37.29387],[-122.16303,37.29392],[-122.16684,37.29524],[-122.16526,37.29649],[-122.16514,37.29799],[-122.16404,37.29884],[-122.16267,37.3009],[-122.16353,37.30166],[-122.16231,37.30377],[-122.16233,37.30441],[-122.16388,37.30485],[-122.16497,37.30553],[-122.16658,37.30562],[-122.16956,37.31052],[-122.17081,37.31198],[-122.17582,37.31275],[-122.17891,37.31254],[-122.17967,37.31595],[-122.17924,37.31751],[-122.18167,37.32214],[-122.18546,37.32374],[-122.18247,37.32648],[-122.17928,37.32619],[-122.17855,37.32516],[-122.17508,37.32574],[-122.18272,37.33286],[-122.18523,37.33646],[-122.18595,37.3387],[-122.19029,37.34197],[-122.1914,37.34347],[-122.1935,37.345],[-122.1959,37.3483],[-122.1958,37.35058],[-122.1967,37.35188],[-122.19984,37.35562],[-122.20247,37.36027],[-122.20265,37.36305]]]}},{"type":"Feature","properties":{"name":"San Carlos","geoid":"0665070"},"geometry":{"type":"Polygon","coordinates":[[[-122.30054,37.49992],[-122.29609,37.49705],[-122.29426,37.49757],[-122.29147,37.49848],[-122.29168,37.49887],[-122.2886,37.49978],[-122.28834,37.49875],[-122.28703,37.49881],[-122.28597,37.49928],[-122.28617,37.50171],[-122.28461,37.50235],[-122.2865,37.50443],[-122.28764,37.50488],[-122.28653,37.50661],[-122.28858,37.50742],[-122.28656,37.51058],[-122.28445,37.50973],[-122.27797,37.51146],[-122.27829,37.51312],[-122.27731,37.51294],[-122.27303,37.5102],[-122.26819,37.51353],[-122.2674,37.51418],[-122.27021,37.51686],[-122.26498,37.52127],[-122.26241,37.51934],[-122.26107,37.52043],[-122.26047,37.52043],[-122.25922,37.51938],[-122.25484,37.5155],[-122.25084,37.51788],[-122.2486,37.51815],[-122.2486,37.51649],[-122.24855,37.51268],[-122.24507,37.50769],[-122.24686,37.50556],[-122.24094,37.50032],[-122.23866,37.49849],[-122.23813,37.49815],[-122.24054,37.49777],[-122.24125,37.49821],[-122.24513,37.49511],[-122.24424,37.49407],[-122.24431,37.49316],[-122.24732,37.49109],[-122.24767,37.48991],[-122.25051,37.48682],[-122.25332,37.48621],[-122.25569,37.48409],[-122.25681,37.48385],[-122.25869,37.48324],[-122.25847,37.48272],[-122.25901,37.4816],[-122.26297,37.48165],[-122.26294,37.48203],[-122.26492,37.48295],[-122.2653,37.48042],[-122.26741,37.4822],[-122.27265,37.48204],[-122.27423,37.4823],[-122.27894,37.47886],[-122.2786,37.47857],[-122.27671,37.47516],[-122.28004,37.47546],[-122.28191,37.47669],[-122.29102,37.48474],[-122.29166,37.48658],[-122.28994,37.48678],[-122.29288,37.48876],[-122.29045,37.49014],[-122.29067,37.4903],[-122.2964,37.4927],[-122.29858,37.49551],[-122.29882,37.49573],[-122.3026,37.49839],[-122.30054,37.49992]],[[-122.28966,37.49677],[-122.2906,37.49584],[-122.28625,37.49296],[-122.28613,37.49508],[-122.28439,37.49532],[-122.28132,37.49337],[-122.28099,37.49203],[-122.27678,37.49517],[-122.27755,37.49573],[-122.2775,37.49589],[-122.27923,37.49756],[-122.27994,37.49749],[-122.28106,37.49681],[-122.28196,37.49753],[-122.28049,37.49845],[-122.28117,37.49899],[-122.28244,37.50001],[-122.28644,37.4971],[-122.28771,37.49827],[-122.28832,37.49802],[-122.28916,37.49888],[-122.29102,37.4985],[-122.28966,37.49677]],[[-122.26224,37.48445],[-122.26228,37.48395],[-122.26181,37.48392],[-122.26177,37.48442],[-122.2614,37.4844],[-122.26109,37.48394],[-122.25714,37.48411],[-122.25851,37.48519],[-122.25959,37.48608],[-122.26191,37.48604],[-122.26233,37.48446],[-122.26224,37.48445]]]}},{"type":"Feature","properties":{"name":"South San Francisco","geoid":"0673262"},"geometry":{"type":"Polygon","coordinates":[[[-122.47076,37.64941],[-122.46905,37.65039],[-122.46758,37.65042],[-122.46685,37.65026],[-122.46076,37.64995],[-122.459,37.64983],[-122.45679,37.64999],[-122.45565,37.65055],[-122.45473,37.64996],[-122.45222,37.64935],[-122.45039,37.64851],[-122.45076,37.64923],[-122.453,37.65462],[-122.45379,37.65592],[-122.45612,37.65399],[-122.45721,37.65548],[-122.45762,37.65673],[-122.46383,37.66107],[-122.46341,37.66235],[-122.46053,37.66406],[-122.46088,37.66454],[-122.46181,37.6657],[-122.46007,37.66683],[-122.45998,37.66665],[-122.45338,37.67072],[-122.45186,37.66918],[-122.45052,37.67004],[-122.44991,37.66952],[-122.4491,37.66826],[-122.44823,37.66721],[-122.44719,37.66634],[-122.4457,37.66537],[-122.44513,37.66584],[-122.44461,37.66548],[-122.43686,37.67125],[-122.43592,37.67153],[-122.43379,37.6704],[-122.43348,37.67024],[-122.4332,37.6701],[-122.43198,37.66913],[-122.4299,37.66801],[-122.4293,37.66772],[-122.42745,37.66719],[-122.42558,37.66724],[-122.42514,37.66765],[-122.4263,37.66875],[-122.42382,37.67213],[-122.41995,37.6717],[-122.41885,37.67333],[-122.41505,37.67293],[-122.41513,37.6718],[-122.4142,37.67095],[-122.41381,37.67093],[-122.41365,37.6714],[-122.41268,37.67164],[-122.41284,37.66986],[-122.41165,37.66899],[-122.41003,37.67065],[-122.4078,37.66923],[-122.40757,37.66724],[-122.40734,37.66718],[-122.40669,37.66702],[-122.40547,37.66804],[-122.40445,37.66753],[-122.40431,37.66619],[-122.39782,37.6672],[-122.39635,37.669],[-122.39723,37.67],[-122.39425,37.67222],[-122.39195,37.67171],[-122.39192,37.67176],[-122.38099,37.67177],[-122.38099,37.66786],[-122.37429,37.66221],[-122.37624,37.65525],[-122.38004,37.64772],[-122.38724,37.64734],[-122.39122,37.6464],[-122.38931,37.64019],[-122.38432,37.64038],[-122.3805,37.63535],[-122.40366,37.63554],[-122.40541,37.6354],[-122.40606,37.63554],[-122.41131,37.63554],[-122.41158,37.64123],[-122.41157,37.6411],[-122.41662,37.63939],[-122.41676,37.63935],[-122.41848,37.64232],[-122.42343,37.64047],[-122.43303,37.63438],[-122.43713,37.63813],[-122.43986,37.63669],[-122.44048,37.63636],[-122.44392,37.63449],[-122.4452,37.63497],[-122.4469,37.63693],[-122.44809,37.63544],[-122.4481,37.6352],[-122.4484,37.6352],[-122.44895,37.63522],[-122.45904,37.64052],[-122.46327,37.63915],[-122.46399,37.63885],[-122.46413,37.63879],[-122.46851,37.64366],[-122.47186,37.64914],[-122.47076,37.64941]],[[-122.44998,37.64778],[-122.44834,37.64598],[-122.44471,37.64317],[-122.4434,37.64374],[-122.44081,37.64488],[-122.44011,37.64355],[-122.43992,37.64322],[-122.43455,37.64606],[-122.43378,37.64514],[-122.43168,37.64761],[-122.4341,37.6463],[-122.43742,37.65091],[-122.4372,37.6523],[-122.43616,37.65425],[-122.43739,37.65408],[-122.43796,37.65435],[-122.43894,37.65419],[-122.43943,37.6543],[-122.44001,37.65353],[-122.44042,37.65351],[-122.44088,37.65296],[-122.44115,37.65241],[-122.44114,37.65129],[-122.44239,37.6494],[-122.44603,37.64776],[-122.44658,37.64771],[-122.4474,37.64706],[-122.44855,37.64739],[-122.44915,37.64843],[-122.45003,37.64819],[-122.44998,37.64778]],[[-122.43417,37.63953],[-122.42657,37.6431],[-122.42945,37.6451],[-122.42977,37.64552],[-122.43256,37.6442],[-122.43238,37.64396],[-122.43292,37.64376],[-122.43253,37.64325],[-122.43385,37.64263],[-122.43416,37.64111],[-122.43536,37.64091],[-122.43417,37.63953]]]}},{"type":"Feature","properties":{"name":"Belmont","geoid":"0605108"},"geometry":{"type":"Polygon","coordinates":[[[-122.32685,37.51506],[-122.32485,37.51732],[-122.32517,37.52004],[-122.32371,37.52102],[-122.32179,37.52122],[-122.31941,37.51918],[-122.31496,37.51921],[-122.31443,37.52111],[-122.31328,37.52156],[-122.31174,37.52444],[-122.3073,37.52116],[-122.30671,37.52132],[-122.30195,37.52336],[-122.29436,37.52649],[-122.29328,37.52698],[-122.29129,37.52764],[-122.28741,37.52927],[-122.28704,37.52943],[-122.28678,37.52957],[-122.28554,37.53067],[-122.28452,37.53042],[-122.27828,37.52884],[-122.27786,37.52987],[-122.27645,37.52951],[-122.27497,37.53047],[-122.27732,37.53294],[-122.27673,37.53386],[-122.27666,37.53422],[-122.2657,37.53408],[-122.26615,37.53395],[-122.26717,37.53326],[-122.26793,37.53066],[-122.26999,37.53065],[-122.2684,37.52798],[-122.26569,37.52572],[-122.2646,37.52355],[-122.26107,37.52043],[-122.26241,37.51934],[-122.26498,37.52127],[-122.26792,37.5238],[-122.27266,37.5189],[-122.27021,37.51686],[-122.2674,37.51418],[-122.26819,37.51353],[-122.27303,37.5102],[-122.27731,37.51294],[-122.27829,37.51312],[-122.27797,37.51146],[-122.28445,37.50973],[-122.28656,37.51058],[-122.28858,37.50742],[-122.28653,37.50661],[-122.28764,37.50488],[-122.28956,37.50201],[-122.28749,37.49949],[-122.2886,37.49978],[-122.29168,37.49887],[-122.29147,37.49848],[-122.29426,37.49757],[-122.29609,37.49705],[-122.30054,37.49992],[-122.3026,37.49839],[-122.30801,37.50222],[-122.31019,37.50107],[-122.3105,37.50212],[-122.31395,37.50299],[-122.31885,37.50312],[-122.32039,37.50365],[-122.31999,37.50463],[-122.3245,37.5105],[-122.32624,37.51166],[-122.32658,37.51174],[-122.32888,37.51355],[-122.32685,37.51506]]]}},{"type":"Feature","properties":{"name":"East Palo Alto","geoid":"0620956"},"geometry":{"type":"Polygon","coordinates":[[[-122.15642,37.4697],[-122.15369,37.4745],[-122.14718,37.47357],[-122.14621,37.4755],[-122.13952,37.47593],[-122.13976,37.48085],[-122.13867,37.48188],[-122.13126,37.48419],[-122.1309,37.48337],[-122.13233,37.47981],[-122.1265,37.475],[-122.12051,37.47724],[-122.1205,37.47721],[-122.12104,37.47655],[-122.12314,37.474],[-122.11755,37.46757],[-122.11516,37.46628],[-122.11769,37.46524],[-122.12392,37.46101],[-122.12282,37.45614],[-122.12177,37.45424],[-122.12238,37.45338],[-122.12598,37.45355],[-122.12786,37.45274],[-122.12829,37.45186],[-122.12988,37.45309],[-122.1339,37.45438],[-122.13671,37.45434],[-122.13877,37.4548],[-122.14191,37.45783],[-122.14303,37.45811],[-122.14493,37.4582],[-122.14501,37.45848],[-122.1446,37.46047],[-122.14455,37.46079],[-122.14505,37.46079],[-122.14572,37.4611],[-122.15,37.46175],[-122.15126,37.46274],[-122.15088,37.46411],[-122.15056,37.46599],[-122.15095,37.46623],[-122.15536,37.46883],[-122.15632,37.46941],[-122.15642,37.4697]]]}},{"type":"Feature","properties":{"name":"Half Moon Bay","geoid":"0631708"},"geometry":{"type":"Polygon","coordinates":[[[-122.46022,37.49315],[-122.45831,37.49316],[-122.45313,37.49442],[-122.4484,37.49613],[-122.44307,37.51774],[-122.44232,37.52075],[-122.43697,37.5176],[-122.43975,37.50733],[-122.43584,37.50795],[-122.43592,37.50548],[-122.43695,37.50438],[-122.43717,37.5014],[-122.43566,37.49826],[-122.43656,37.495],[-122.43491,37.49271],[-122.43718,37.48967],[-122.43698,37.48799],[-122.43253,37.4856],[-122.43512,37.48203],[-122.43459,37.48106],[-122.43069,37.48443],[-122.43092,37.48336],[-122.42812,37.48163],[-122.42548,37.47853],[-122.42179,37.47199],[-122.41898,37.47505],[-122.41906,37.47485],[-122.41749,37.47419],[-122.41881,37.47424],[-122.41928,37.47387],[-122.42135,37.46916],[-122.41652,37.46718],[-122.421,37.46426],[-122.42106,37.46124],[-122.42487,37.46109],[-122.42548,37.46158],[-122.42658,37.4623],[-122.42675,37.46237],[-122.42761,37.4616],[-122.42702,37.46053],[-122.42682,37.46022],[-122.42655,37.45968],[-122.42633,37.45933],[-122.42584,37.45695],[-122.42599,37.45689],[-122.42609,37.45635],[-122.42624,37.45595],[-122.42616,37.45584],[-122.42604,37.45582],[-122.42569,37.45571],[-122.42565,37.45568],[-122.42651,37.45534],[-122.42907,37.45498],[-122.42589,37.43139],[-122.42108,37.43254],[-122.42082,37.43134],[-122.42652,37.42786],[-122.42652,37.42768],[-122.42638,37.42492],[-122.43817,37.42519],[-122.43933,37.42667],[-122.4406,37.42937],[-122.44207,37.43251],[-122.44369,37.43594],[-122.44505,37.45116],[-122.44541,37.45515],[-122.44599,37.46154],[-122.44719,37.46529],[-122.45207,37.48048],[-122.45209,37.48054],[-122.45869,37.49128],[-122.45958,37.49273],[-122.46022,37.49315]],[[-122.4763,37.50222],[-122.47589,37.50306],[-122.4679,37.49995],[-122.46763,37.49797],[-122.46789,37.49814],[-122.47239,37.50054],[-122.47482,37.49948],[-122.4768,37.50103],[-122.4763,37.50222]]]}},{"type":"Feature","properties":{"name":"Redwood City","geoid":"0660102"},"geometry":{"type":"Polygon","coordinates":[[[-122.26233,37.48446],[-122.26191,37.48604],[-122.25959,37.48608],[-122.25851,37.48519],[-122.25714,37.48411],[-122.26109,37.48394],[-122.2614,37.4844],[-122.26177,37.48442],[-122.26181,37.48392],[-122.26228,37.48395],[-122.26224,37.48445],[-122.26233,37.48446]],[[-122.28766,37.47048],[-122.28278,37.47451],[-122.28031,37.47459],[-122.28012,37.47454],[-122.28067,37.47262],[-122.27912,37.46931],[-122.27629,37.47063],[-122.27532,37.46935],[-122.27483,37.46735],[-122.27197,37.46621],[-122.2749,37.46374],[-122.27553,37.46082],[-122.27409,37.45962],[-122.27536,37.45896],[-122.27117,37.4573],[-122.26962,37.45812],[-122.26837,37.45689],[-122.26792,37.45681],[-122.2676,37.45725],[-122.26653,37.45609],[-122.26187,37.45456],[-122.25889,37.45704],[-122.25895,37.45971],[-122.26114,37.46128],[-122.26196,37.4613],[-122.26296,37.46263],[-122.26048,37.46212],[-122.25786,37.46404],[-122.25772,37.4627],[-122.2557,37.46268],[-122.25584,37.46226],[-122.2554,37.46291],[-122.25612,37.4638],[-122.25595,37.46394],[-122.25695,37.46498],[-122.25679,37.46514],[-122.25792,37.46554],[-122.25915,37.46855],[-122.25855,37.4691],[-122.25947,37.47078],[-122.26009,37.46996],[-122.26025,37.47262],[-122.26144,37.47406],[-122.26028,37.47727],[-122.26177,37.47772],[-122.25948,37.47967],[-122.25818,37.48079],[-122.25696,37.47926],[-122.2538,37.48145],[-122.2556,37.48288],[-122.25715,37.48168],[-122.25847,37.48272],[-122.25869,37.48324],[-122.25681,37.48385],[-122.25569,37.48409],[-122.25332,37.48621],[-122.25051,37.48682],[-122.24767,37.48991],[-122.24732,37.49109],[-122.24431,37.49316],[-122.24424,37.49407],[-122.24513,37.49511],[-122.24125,37.49821],[-122.24054,37.49777],[-122.23813,37.49815],[-122.23866,37.49849],[-122.24094,37.50032],[-122.24686,37.50556],[-122.24507,37.50769],[-122.24855,37.51268],[-122.2486,37.51649],[-122.2486,37.51815],[-122.25084,37.51788],[-122.25484,37.5155],[-122.25922,37.51938],[-122.26047,37.52043],[-122.26107,37.52043],[-122.2646,37.52355],[-122.26569,37.52572],[-122.2684,37.52798],[-122.26999,37.53065],[-122.26793,37.53066],[-122.26717,37.53326],[-122.26615,37.53395],[-122.2657,37.53408],[-122.265,37.53439],[-122.26458,37.53411],[-122.26137,37.5334],[-122.26043,37.53968],[-122.25962,37.54038],[-122.25846,37.54118],[-122.25685,37.54049],[-122.25193,37.54041],[-122.25237,37.54451],[-122.25072,37.54819],[-122.24936,37.54919],[-122.24396,37.55373],[-122.24342,37.55276],[-122.23585,37.55197],[-122.23288,37.55259],[-122.22905,37.55125],[-122.22701,37.54842],[-122.22423,37.54455],[-122.22324,37.54318],[-122.21248,37.54019],[-122.20368,37.54019],[-122.19659,37.5372],[-122.19513,37.53377],[-122.19465,37.53265],[-122.20012,37.52662],[-122.19726,37.52432],[-122.19496,37.52247],[-122.18657,37.51757],[-122.18348,37.52077],[-122.17955,37.51182],[-122.17815,37.51089],[-122.16422,37.50164],[-122.16876,37.49633],[-122.17304,37.49622],[-122.17599,37.4982],[-122.17818,37.49827],[-122.17847,37.49777],[-122.17844,37.48896],[-122.17898,37.48937],[-122.17919,37.48936],[-122.1792,37.48861],[-122.17946,37.48801],[-122.17937,37.48748],[-122.17912,37.48727],[-122.17849,37.48715],[-122.1785,37.48699],[-122.18278,37.48825],[-122.1837,37.48835],[-122.1895,37.48753],[-122.19222,37.48743],[-122.19259,37.48633],[-122.19002,37.48582],[-122.18929,37.48666],[-122.18221,37.48513],[-122.18288,37.484],[-122.18191,37.48252],[-122.18354,37.48145],[-122.18601,37.47801],[-122.18872,37.47783],[-122.19185,37.47905],[-122.1986,37.48161],[-122.19992,37.47951],[-122.2027,37.48062],[-122.20204,37.48292],[-122.21341,37.48522],[-122.21328,37.48341],[-122.2094,37.4826],[-122.21004,37.48169],[-122.21284,37.47765],[-122.2121,37.47715],[-122.21245,37.47672],[-122.21409,37.47698],[-122.21337,37.47801],[-122.21497,37.47907],[-122.21612,37.47745],[-122.21725,37.47754],[-122.21764,37.47709],[-122.21523,37.47516],[-122.21546,37.47483],[-122.2159,37.47501],[-122.21686,37.4736],[-122.21726,37.47326],[-122.21678,37.4729],[-122.21536,37.47187],[-122.21368,37.47066],[-122.21245,37.46968],[-122.21627,37.46489],[-122.21774,37.46429],[-122.21832,37.46311],[-122.21911,37.46081],[-122.2209,37.45861],[-122.22347,37.45811],[-122.22591,37.45938],[-122.22612,37.45951],[-122.2275,37.45703],[-122.22728,37.45641],[-122.22769,37.45667],[-122.23042,37.45088],[-122.23097,37.4483],[-122.23161,37.44876],[-122.23802,37.45334],[-122.24032,37.45501],[-122.24385,37.45303],[-122.24697,37.45543],[-122.25731,37.44721],[-122.25999,37.44746],[-122.26031,37.44838],[-122.26386,37.44811],[-122.26307,37.44942],[-122.26663,37.45076],[-122.26909,37.45225],[-122.26662,37.45411],[-122.26802,37.45636],[-122.26841,37.45521],[-122.26919,37.45463],[-122.26946,37.45501],[-122.26948,37.45525],[-122.26963,37.45547],[-122.26997,37.45566],[-122.27023,37.45552],[-122.27034,37.4557],[-122.2707,37.4559],[-122.27432,37.45621],[-122.27654,37.45907],[-122.27782,37.46007],[-122.27815,37.46008],[-122.27807,37.46038],[-122.27796,37.46057],[-122.278,37.46078],[-122.27942,37.46034],[-122.27678,37.4624],[-122.27963,37.46276],[-122.28151,37.46509],[-122.28503,37.46624],[-122.28693,37.46812],[-122.29114,37.46949],[-122.28766,37.47048]],[[-122.25774,37.47411],[-122.25793,37.47322],[-122.25501,37.47183],[-122.25494,37.47094],[-122.25266,37.47175],[-122.25297,37.47334],[-122.25437,37.47295],[-122.2548,37.47399],[-122.25171,37.47418],[-122.25191,37.47253],[-122.25064,37.47315],[-122.25073,37.47347],[-122.25076,37.47425],[-122.25085,37.47457],[-122.25101,37.47475],[-122.25139,37.47505],[-122.25106,37.47531],[-122.25469,37.47755],[-122.25593,37.47748],[-122.25936,37.47433],[-122.25774,37.47411]],[[-122.25032,37.47235],[-122.24746,37.47007],[-122.24653,37.47043],[-122.24928,37.47318],[-122.25032,37.47235]]]}},{"type":"Feature","properties":{"name":"San Bruno","geoid":"0665028"},"geometry":{"type":"Polygon","coordinates":[[[-122.47272,37.6338],[-122.47253,37.63377],[-122.47184,37.63407],[-122.4696,37.63787],[-122.46878,37.63852],[-122.46808,37.63761],[-122.46413,37.63879],[-122.46399,37.63885],[-122.46327,37.63915],[-122.45904,37.64052],[-122.44895,37.63522],[-122.4484,37.6352],[-122.4481,37.6352],[-122.44809,37.63544],[-122.4469,37.63693],[-122.4452,37.63497],[-122.44392,37.63449],[-122.44048,37.63636],[-122.43986,37.63669],[-122.43713,37.63813],[-122.43303,37.63438],[-122.42343,37.64047],[-122.41848,37.64232],[-122.41676,37.63935],[-122.41662,37.63939],[-122.41157,37.6411],[-122.41158,37.64123],[-122.41131,37.63554],[-122.40606,37.63554],[-122.40541,37.6354],[-122.40513,37.63448],[-122.40533,37.6339],[-122.40492,37.63096],[-122.40351,37.62104],[-122.40371,37.62047],[-122.4048,37.61953],[-122.40497,37.61936],[-122.40009,37.61267],[-122.40016,37.61265],[-122.40174,37.61085],[-122.40607,37.61498],[-122.40539,37.61338],[-122.4063,37.61263],[-122.40393,37.60968],[-122.40743,37.60784],[-122.40839,37.60791],[-122.40897,37.60929],[-122.40604,37.61223],[-122.40927,37.61405],[-122.41019,37.61358],[-122.41588,37.61071],[-122.42072,37.60922],[-122.42288,37.60714],[-122.42493,37.60607],[-122.42545,37.60575],[-122.42568,37.60522],[-122.42684,37.60486],[-122.42815,37.60475],[-122.42812,37.60468],[-122.43034,37.60614],[-122.43747,37.61367],[-122.44418,37.62041],[-122.44576,37.62204],[-122.44921,37.61871],[-122.45074,37.61768],[-122.45412,37.61968],[-122.45417,37.62013],[-122.45501,37.62078],[-122.45493,37.62142],[-122.45378,37.6219],[-122.45373,37.62241],[-122.45571,37.62457],[-122.45619,37.62537],[-122.45573,37.62674],[-122.45574,37.62781],[-122.45737,37.62704],[-122.46114,37.62936],[-122.46634,37.62897],[-122.46741,37.6272],[-122.46886,37.62723],[-122.47184,37.63115],[-122.4724,37.63149],[-122.47271,37.63211],[-122.47272,37.6338]]]}},{"type":"Feature","properties":{"name":"Portola Valley","geoid":"0658380"},"geometry":{"type":"Polygon","coordinates":[[[-122.2533,37.37523],[-122.24989,37.37729],[-122.25002,37.37816],[-122.24849,37.37982],[-122.24762,37.37958],[-122.2464,37.38257],[-122.24549,37.38339],[-122.24511,37.38539],[-122.24407,37.38571],[-122.23947,37.38991],[-122.23602,37.38552],[-122.23471,37.38428],[-122.23401,37.38708],[-122.23201,37.38462],[-122.22557,37.3802],[-122.22413,37.38063],[-122.22327,37.38197],[-122.22558,37.38247],[-122.22673,37.38359],[-122.22574,37.3845],[-122.22716,37.38524],[-122.2275,37.38739],[-122.2295,37.38836],[-122.22903,37.38891],[-122.23078,37.39107],[-122.232,37.39107],[-122.23375,37.39339],[-122.20912,37.40061],[-122.20665,37.40124],[-122.20434,37.39407],[-122.19186,37.39764],[-122.19002,37.39486],[-122.19006,37.39115],[-122.19062,37.39037],[-122.19101,37.3844],[-122.1931,37.38274],[-122.19668,37.37754],[-122.19933,37.37442],[-122.19933,37.37267],[-122.20071,37.37196],[-122.20101,37.37121],[-122.2016,37.36801],[-122.20132,37.36701],[-122.20265,37.36305],[-122.20247,37.36027],[-122.19984,37.35562],[-122.1967,37.35188],[-122.20317,37.3484],[-122.20215,37.347],[-122.2068,37.34402],[-122.2105,37.34323],[-122.2127,37.34008],[-122.21414,37.34074],[-122.21414,37.33833],[-122.217,37.3383],[-122.21736,37.3398],[-122.22015,37.34117],[-122.22359,37.34245],[-122.22871,37.34521],[-122.2304,37.34766],[-122.23272,37.34895],[-122.23673,37.34979],[-122.23963,37.35146],[-122.24401,37.35595],[-122.24684,37.35791],[-122.24772,37.35993],[-122.24692,37.36283],[-122.24789,37.36503],[-122.24765,37.36729],[-122.25244,37.37186],[-122.25273,37.37193],[-122.25388,37.3735],[-122.2533,37.37523]]]}},{"type":"Feature","properties":{"name":"Hillsborough","geoid":"0633798"},"geometry":{"type":"Polygon","coordinates":[[[-122.39355,37.57004],[-122.3911,37.57116],[-122.39122,37.56985],[-122.38917,37.56885],[-122.38605,37.57195],[-122.38358,37.5732],[-122.3829,37.57491],[-122.38142,37.57451],[-122.3803,37.57662],[-122.38093,37.57749],[-122.37816,37.57739],[-122.37468,37.57981],[-122.37189,37.58079],[-122.37133,37.5799],[-122.37042,37.57939],[-122.36932,37.57804],[-122.36812,37.57811],[-122.36351,37.58058],[-122.36328,37.58023],[-122.35884,37.57724],[-122.35685,37.5773],[-122.35602,37.5785],[-122.35542,37.57817],[-122.35409,37.57748],[-122.35266,37.57708],[-122.35383,37.57446],[-122.35288,37.57285],[-122.35412,37.57211],[-122.35191,37.56995],[-122.35008,37.56631],[-122.355,37.56416],[-122.35309,37.56119],[-122.35271,37.56089],[-122.35259,37.56097],[-122.34564,37.56413],[-122.33716,37.56799],[-122.33634,37.56751],[-122.334,37.56614],[-122.33361,37.56593],[-122.33346,37.56582],[-122.33315,37.5657],[-122.33243,37.56527],[-122.33196,37.56497],[-122.33051,37.56394],[-122.33003,37.56323],[-122.32918,37.5621],[-122.3307,37.56062],[-122.33374,37.55788],[-122.33634,37.55554],[-122.33947,37.55273],[-122.34061,37.54989],[-122.34005,37.54789],[-122.33918,37.54708],[-122.33785,37.54608],[-122.33242,37.55053],[-122.32906,37.5483],[-122.32846,37.54858],[-122.33024,37.54706],[-122.33137,37.54575],[-122.33258,37.54417],[-122.3302,37.54127],[-122.33296,37.53892],[-122.33523,37.53802],[-122.3387,37.5406],[-122.34118,37.53846],[-122.33726,37.53534],[-122.34158,37.53173],[-122.3434,37.53353],[-122.34572,37.5397],[-122.34945,37.54062],[-122.34954,37.54069],[-122.3499,37.54056],[-122.35,37.53753],[-122.34988,37.53691],[-122.34902,37.53616],[-122.34897,37.53568],[-122.35004,37.53415],[-122.35029,37.53397],[-122.3504,37.53404],[-122.35088,37.5331],[-122.35116,37.53287],[-122.35193,37.53266],[-122.35328,37.53221],[-122.35503,37.53091],[-122.35871,37.53005],[-122.36053,37.53118],[-122.36174,37.53769],[-122.3627,37.54073],[-122.365,37.54492],[-122.36571,37.54536],[-122.37074,37.54855],[-122.37115,37.54879],[-122.3725,37.54899],[-122.37318,37.54921],[-122.37336,37.54935],[-122.37603,37.55176],[-122.37644,37.55218],[-122.38091,37.55846],[-122.3873,37.56496],[-122.38975,37.56632],[-122.39082,37.56729],[-122.39093,37.56745],[-122.39232,37.5688],[-122.39355,37.57004]]]}},{"type":"Feature","properties":{"name":"Daly City","geoid":"0617918"},"geometry":{"type":"Polygon","coordinates":[[[-122.5006,37.70111],[-122.49607,37.70117],[-122.49664,37.70267],[-122.48784,37.70321],[-122.48624,37.70415],[-122.48638,37.70816],[-122.48613,37.70815],[-122.48579,37.70812],[-122.47133,37.70823],[-122.46906,37.70823],[-122.46894,37.70823],[-122.4649,37.70819],[-122.45905,37.70823],[-122.45851,37.70823],[-122.45436,37.70823],[-122.45247,37.70815],[-122.4523,37.70814],[-122.44975,37.70821],[-122.44588,37.70823],[-122.44448,37.70833],[-122.44208,37.70823],[-122.44126,37.70831],[-122.43459,37.70813],[-122.43338,37.70823],[-122.43134,37.70823],[-122.43003,37.70828],[-122.42535,37.70862],[-122.42389,37.70824],[-122.42008,37.70823],[-122.41622,37.70833],[-122.41518,37.70823],[-122.41238,37.7083],[-122.40648,37.70832],[-122.40537,37.70826],[-122.40529,37.70826],[-122.40696,37.70464],[-122.41072,37.70569],[-122.41134,37.70136],[-122.41342,37.69783],[-122.41922,37.69914],[-122.42109,37.69915],[-122.4245,37.70039],[-122.42721,37.70349],[-122.42787,37.70292],[-122.42884,37.70497],[-122.43068,37.70484],[-122.43246,37.70429],[-122.43697,37.70439],[-122.44097,37.7037],[-122.44071,37.70112],[-122.44173,37.70061],[-122.44237,37.7017],[-122.44331,37.70164],[-122.44615,37.70246],[-122.44686,37.70283],[-122.44905,37.70165],[-122.45112,37.70053],[-122.45147,37.6987],[-122.45317,37.69684],[-122.4522,37.696],[-122.45337,37.69488],[-122.4552,37.6942],[-122.4558,37.69347],[-122.45477,37.69234],[-122.45281,37.69165],[-122.45153,37.69121],[-122.4484,37.68834],[-122.44554,37.6869],[-122.44547,37.68533],[-122.44653,37.68472],[-122.44694,37.68471],[-122.44843,37.68515],[-122.45522,37.68884],[-122.45575,37.68835],[-122.45869,37.68492],[-122.45972,37.68619],[-122.46476,37.68613],[-122.46574,37.68785],[-122.46599,37.68832],[-122.46889,37.68716],[-122.46866,37.68458],[-122.46645,37.68252],[-122.47069,37.68211],[-122.47054,37.67845],[-122.46544,37.67187],[-122.46126,37.66804],[-122.46007,37.66683],[-122.46181,37.6657],[-122.46088,37.66454],[-122.46053,37.66406],[-122.46341,37.66235],[-122.46383,37.66107],[-122.45762,37.65673],[-122.45721,37.65548],[-122.45612,37.65399],[-122.45379,37.65592],[-122.453,37.65462],[-122.45076,37.64923],[-122.45039,37.64851],[-122.45222,37.64935],[-122.45473,37.64996],[-122.45565,37.65055],[-122.45679,37.64999],[-122.459,37.64983],[-122.46076,37.64995],[-122.46685,37.65026],[-122.46758,37.65042],[-122.46905,37.65039],[-122.47076,37.64941],[-122.47186,37.64914],[-122.47134,37.65304],[-122.47387,37.65745],[-122.47395,37.65757],[-122.47579,37.66051],[-122.47679,37.66198],[-122.4816,37.66613],[-122.48487,37.66637],[-122.48502,37.66429],[-122.48552,37.66429],[-122.48573,37.66431],[-122.48473,37.66249],[-122.48574,37.6615],[-122.49021,37.6611],[-122.4917,37.66225],[-122.49253,37.66325],[-122.49374,37.66441],[-122.49538,37.66435],[-122.49543,37.66518],[-122.49572,37.66977],[-122.49659,37.68338],[-122.49678,37.68643],[-122.50053,37.70084],[-122.5006,37.70111]],[[-122.48894,37.69292],[-122.48891,37.6901],[-122.48433,37.68965],[-122.48388,37.68686],[-122.48126,37.68608],[-122.47914,37.68674],[-122.47533,37.68606],[-122.47563,37.69004],[-122.4759,37.69038],[-122.47587,37.69109],[-122.47537,37.69181],[-122.47756,37.69323],[-122.4745,37.69324],[-122.47301,37.69254],[-122.47182,37.69326],[-122.47183,37.69482],[-122.4798,37.69479],[-122.47967,37.69543],[-122.48484,37.69565],[-122.48662,37.69627],[-122.48901,37.69628],[-122.48894,37.69292]],[[-122.46113,37.6883],[-122.45976,37.68625],[-122.45877,37.6874],[-122.45967,37.68881],[-122.4611,37.68959],[-122.46113,37.6883]]]}},{"type":"Feature","properties":{"name":"Colma","geoid":"0614736"},"geometry":{"type":"Polygon","coordinates":[[[-122.47069,37.68211],[-122.46645,37.68252],[-122.46352,37.68252],[-122.46535,37.68392],[-122.46412,37.68538],[-122.46431,37.68572],[-122.45992,37.68575],[-122.45967,37.6854],[-122.45869,37.68492],[-122.45575,37.68835],[-122.45522,37.68884],[-122.44843,37.68515],[-122.44694,37.68471],[-122.44653,37.68472],[-122.44547,37.68533],[-122.4411,37.68338],[-122.44215,37.68296],[-122.44383,37.67831],[-122.44309,37.67729],[-122.44054,37.67587],[-122.43876,37.6776],[-122.43262,37.67488],[-122.43311,37.67164],[-122.43379,37.6704],[-122.43592,37.67153],[-122.43686,37.67125],[-122.44461,37.66548],[-122.44513,37.66584],[-122.4457,37.66537],[-122.44719,37.66634],[-122.44823,37.66721],[-122.4491,37.66826],[-122.44991,37.66952],[-122.45052,37.67004],[-122.45186,37.66918],[-122.45338,37.67072],[-122.45998,37.66665],[-122.46007,37.66683],[-122.46126,37.66804],[-122.46544,37.67187],[-122.47054,37.67845],[-122.47069,37.68211]]]}},{"type":"Feature","properties":{"name":"Millbrae","geoid":"0647486"},"geometry":{"type":"Polygon","coordinates":[[[-122.42288,37.60714],[-122.42072,37.60922],[-122.41588,37.61071],[-122.41019,37.61358],[-122.40927,37.61405],[-122.40604,37.61223],[-122.40897,37.60929],[-122.40839,37.60791],[-122.40743,37.60784],[-122.40393,37.60968],[-122.4063,37.61263],[-122.40539,37.61338],[-122.40607,37.61498],[-122.40174,37.61085],[-122.40016,37.61265],[-122.40009,37.61267],[-122.39908,37.61202],[-122.39787,37.61271],[-122.39728,37.61192],[-122.39209,37.60999],[-122.39179,37.60979],[-122.38851,37.60622],[-122.38729,37.6069],[-122.38353,37.60448],[-122.3829,37.60477],[-122.37784,37.60669],[-122.37855,37.60559],[-122.37377,37.60402],[-122.38406,37.59792],[-122.38449,37.59761],[-122.38715,37.59564],[-122.39011,37.5925],[-122.38831,37.59119],[-122.38995,37.58824],[-122.39095,37.589],[-122.39551,37.58547],[-122.39719,37.58496],[-122.39916,37.58445],[-122.40362,37.58161],[-122.40607,37.58404],[-122.40666,37.58404],[-122.40777,37.58498],[-122.40885,37.58498],[-122.41283,37.58937],[-122.41465,37.59125],[-122.41944,37.59607],[-122.42364,37.59951],[-122.41984,37.60182],[-122.42493,37.60607],[-122.42288,37.60714]]]}},{"type":"Feature","properties":{"name":"Brisbane","geoid":"0608310"},"geometry":{"type":"Polygon","coordinates":[[[-122.42616,37.69515],[-122.42473,37.69572],[-122.42371,37.69621],[-122.42109,37.69915],[-122.41922,37.69914],[-122.41342,37.69783],[-122.41134,37.70136],[-122.41072,37.70569],[-122.40696,37.70464],[-122.40529,37.70826],[-122.40468,37.70833],[-122.39511,37.70834],[-122.39338,37.70827],[-122.39416,37.70764],[-122.38968,37.68805],[-122.38763,37.67906],[-122.38171,37.67726],[-122.38099,37.67237],[-122.38099,37.67177],[-122.39192,37.67176],[-122.39105,37.6732],[-122.3966,37.67388],[-122.39659,37.67472],[-122.39658,37.67558],[-122.40799,37.67554],[-122.40807,37.6848],[-122.40954,37.6848],[-122.40954,37.68601],[-122.4121,37.68561],[-122.41605,37.68636],[-122.42614,37.69269],[-122.42616,37.69515]]]}},{"type":"Feature","properties":{"name":"Atherton","geoid":"0603092"},"geometry":{"type":"Polygon","coordinates":[[[-122.23342,37.4338],[-122.23023,37.43708],[-122.23095,37.44027],[-122.22833,37.43965],[-122.22497,37.44396],[-122.22175,37.44801],[-122.21971,37.45059],[-122.21722,37.45375],[-122.22143,37.45687],[-122.22198,37.45727],[-122.2209,37.45861],[-122.21911,37.46081],[-122.21832,37.46311],[-122.21774,37.46429],[-122.21627,37.46489],[-122.21245,37.46968],[-122.21185,37.46925],[-122.20664,37.46545],[-122.20612,37.46514],[-122.20607,37.4652],[-122.20365,37.46825],[-122.20211,37.46727],[-122.19977,37.4702],[-122.19948,37.47016],[-122.19795,37.47264],[-122.19334,37.47087],[-122.1922,37.47272],[-122.1897,37.47172],[-122.18881,37.47325],[-122.18678,37.47676],[-122.1779,37.47619],[-122.17504,37.47541],[-122.17449,37.47523],[-122.17025,37.47311],[-122.16945,37.4727],[-122.16787,37.4717],[-122.16833,37.47068],[-122.17319,37.46109],[-122.17395,37.45952],[-122.17544,37.46028],[-122.1767,37.45866],[-122.17978,37.4602],[-122.18086,37.46159],[-122.18375,37.45795],[-122.18526,37.4587],[-122.18851,37.46031],[-122.18634,37.46312],[-122.18924,37.46456],[-122.19205,37.46092],[-122.19342,37.46179],[-122.19562,37.45985],[-122.18759,37.45582],[-122.19167,37.45099],[-122.19576,37.44608],[-122.20007,37.44092],[-122.20177,37.4389],[-122.20532,37.4404],[-122.20669,37.44022],[-122.20697,37.43984],[-122.20761,37.44013],[-122.21012,37.43793],[-122.21092,37.43834],[-122.21211,37.43691],[-122.21217,37.43487],[-122.21399,37.43316],[-122.21338,37.43274],[-122.21364,37.43272],[-122.21755,37.42796],[-122.21897,37.42896],[-122.22096,37.42793],[-122.22455,37.42411],[-122.22927,37.42473],[-122.22602,37.42849],[-122.22651,37.43006],[-122.23054,37.43038],[-122.23366,37.43238],[-122.23342,37.4338]]]}},{"type":"Feature","properties":{"name":"Woodside","geoid":"0686440"},"geometry":{"type":"Polygon","coordinates":[[[-122.30339,37.42333],[-122.28982,37.43134],[-122.28703,37.43331],[-122.28292,37.43541],[-122.28684,37.43886],[-122.28737,37.44152],[-122.28923,37.44299],[-122.27863,37.45028],[-122.27829,37.45061],[-122.28042,37.45202],[-122.2783,37.45432],[-122.2783,37.45591],[-122.28002,37.45614],[-122.27887,37.45869],[-122.28125,37.45893],[-122.27942,37.46034],[-122.278,37.46078],[-122.27796,37.46057],[-122.27807,37.46038],[-122.27815,37.46008],[-122.27782,37.46007],[-122.27654,37.45907],[-122.27432,37.45621],[-122.2707,37.4559],[-122.27108,37.45559],[-122.27089,37.45539],[-122.2714,37.45493],[-122.27026,37.45462],[-122.26964,37.45455],[-122.26919,37.45463],[-122.26841,37.45521],[-122.26802,37.45636],[-122.26662,37.45411],[-122.26909,37.45225],[-122.26663,37.45076],[-122.26307,37.44942],[-122.26386,37.44811],[-122.26031,37.44838],[-122.25999,37.44746],[-122.25731,37.44721],[-122.24697,37.45543],[-122.24385,37.45303],[-122.24032,37.45501],[-122.23802,37.45334],[-122.23161,37.44876],[-122.23451,37.44452],[-122.23122,37.44291],[-122.22832,37.44637],[-122.22682,37.44528],[-122.22649,37.44505],[-122.22578,37.44454],[-122.22497,37.44396],[-122.22833,37.43965],[-122.23095,37.44027],[-122.23023,37.43708],[-122.23342,37.4338],[-122.23366,37.43238],[-122.23054,37.43038],[-122.22651,37.43006],[-122.22602,37.42849],[-122.22927,37.42473],[-122.22925,37.42467],[-122.22944,37.4248],[-122.23289,37.42467],[-122.23592,37.42535],[-122.23921,37.42182],[-122.24112,37.42193],[-122.2438,37.4201],[-122.24223,37.41611],[-122.24046,37.41188],[-122.24128,37.41115],[-122.24508,37.40834],[-122.24451,37.40435],[-122.24507,37.40243],[-122.24441,37.39825],[-122.24071,37.39854],[-122.23828,37.39983],[-122.23784,37.39543],[-122.23515,37.39732],[-122.23317,37.39726],[-122.2344,37.39645],[-122.23375,37.39339],[-122.232,37.39107],[-122.23078,37.39107],[-122.22903,37.38891],[-122.2295,37.38836],[-122.2275,37.38739],[-122.22716,37.38524],[-122.22574,37.3845],[-122.22673,37.38359],[-122.22558,37.38247],[-122.22327,37.38197],[-122.22413,37.38063],[-122.22557,37.3802],[-122.23201,37.38462],[-122.23401,37.38708],[-122.23471,37.38428],[-122.23602,37.38552],[-122.23947,37.38991],[-122.24407,37.38571],[-122.24511,37.38539],[-122.24549,37.38339],[-122.2464,37.38257],[-122.24762,37.37958],[-122.24849,37.37982],[-122.25002,37.37816],[-122.24989,37.37729],[-122.2533,37.37523],[-122.25388,37.3735],[-122.25273,37.37193],[-122.25644,37.37199],[-122.258,37.37286],[-122.25856,37.37427],[-122.25953,37.37499],[-122.25951,37.37684],[-122.26037,37.37823],[-122.25756,37.37741],[-122.26581,37.38663],[-122.26723,37.38849],[-122.26898,37.38987],[-122.26981,37.39112],[-122.27159,37.39299],[-122.27135,37.3933],[-122.26808,37.39759],[-122.26625,37.3971],[-122.26515,37.39698],[-122.26479,37.3969],[-122.26077,37.39617],[-122.25809,37.39832],[-122.25424,37.3972],[-122.25611,37.39838],[-122.25682,37.40135],[-122.25918,37.40043],[-122.26153,37.39829],[-122.26061,37.40075],[-122.25763,37.40368],[-122.26603,37.412],[-122.27289,37.41781],[-122.27684,37.41601],[-122.28087,37.41464],[-122.28484,37.41583],[-122.28896,37.41575],[-122.29081,37.41854],[-122.2921,37.41759],[-122.29442,37.41826],[-122.29628,37.42031],[-122.30031,37.42125],[-122.30339,37.42333]]]}}]}